#aV2010  8 18  0  0   .00000000      96 DD+AD WGS84 FIT  NGA
## 1597 259200.00000000   900.00000000 55426  .0000000000000
+   32     1  2  3  4  5  6  7  8  9 10 11 12 13 14 15 16 17
+         18 19 20 21 22 23 24 25 26 27 28 29 30 31 32  0  0
+          0  0  0  0  0  0  0  0  0  0  0  0  0  0  0  0  0
+          0  0  0  0  0  0  0  0  0  0  0  0  0  0  0  0  0
+          0  0  0  0  0  0  0  0  0  0  0  0  0  0  0  0  0
++         0  0  0  0  0  0  0  0  0  0  0  0  0  0  0  0  0
++         0  0  0  0  0  0  0  0  0  0  0  0  0  0  0  0  0
++         0  0  0  0  0  0  0  0  0  0  0  0  0  0  0  0  0
++         0  0  0  0  0  0  0  0  0  0  0  0  0  0  0  0  0
++         0  0  0  0  0  0  0  0  0  0  0  0  0  0  0  0  0
%c cc cc ccc ccc cccc cccc cccc cccc ccccc ccccc ccccc ccccc
%c cc cc ccc ccc cccc cccc cccc cccc ccccc ccccc ccccc ccccc
%f  0.0000000  0.000000000  0.00000000000  0.000000000000000
%f  0.0000000  0.000000000  0.00000000000  0.000000000000000
%i    0    0    0    0      0      0      0      0         0
%i    0    0    0    0      0      0      0      0         0
/*      NGA, ST. LOUIS,MO.                                  
/*   EPHEMERIS COMPUTED FROM  3 DAYS OF DATA                
/* CCCCCCCCCCCCCCCCCCCCCCCCCCCCCCCCCCCCCCCCCCCCCCCCCCCCCCCCC
/* CCCCCCCCCCCCCCCCCCCCCCCCCCCCCCCCCCCCCCCCCCCCCCCCCCCCCCCCC
*  2010  8 18  7 15   .00000000                                                 
P  1 -25990.249682  -4801.566650  -3364.204672   -153.123110                    
V  1   4330.470511  -2123.081655 -31399.609422      -.039842                    
P  2  19389.456200  -6623.732036 -16651.128852    281.695459                    
V  2 -10134.978892  18989.384486 -19824.672362       .028887                    
P  3 -16467.670052   2325.698045  20384.134500    596.473891                    
V  3 -13245.027616 -23335.861349  -7552.270104       .049517                    
P  4  14882.593154   6088.760201 -21351.374729    149.147539                    
V  4 -15361.733228  21895.951835  -4142.548489       .083706                    
P  5  25043.191835  -3466.266138   8280.588516    -25.368281                    
V  5  10209.314677   3636.827962 -29227.083070      -.043141                    
P  6 -17951.713499  -3412.907005  19499.523459    529.417956                    
V  6  -9967.213294 -22355.669205 -13037.695988      -.149545                    
P  7  -1892.971213  21108.487675  15879.438857     -1.939182                    
V  7 -13320.899690  15336.969517 -22143.602528      -.000172                    
P  8   7854.967263  12779.380830  21840.256511      6.444332                    
V  8 -18212.362657  20941.273009  -6226.070449       .000648                    
P  9  15255.010193 -21690.023591    705.782154     25.013107                    
V  9    948.157478   2526.128329  32206.409849       .022534                    
P 10  25756.010555   6066.635508  -4107.217642    -49.950737                    
V 10  -5233.837866   2110.735039 -30767.317697      -.009397                    
P 11  -9042.769866  24752.614948  -1048.368843    -83.299182                    
V 11  -5380.703273  -1033.749903  30248.530574      -.026274                    
P 12  12249.530327 -12374.823972 -19973.322071    -81.981869                    
V 12  25185.958287   3871.786238  13171.283532       .038470                    
P 13   4229.327292  25199.782664  -7296.753478    299.501149                    
V 13  -4749.522923  -7907.428527 -30680.130449      -.008065                    
P 14 -15362.989713 -18477.845821 -11326.441576     79.631902                    
V 14  -3775.870912 -14117.616809  27659.325694       .038930                    
P 15  10247.819137 -12907.263397  20822.498060   -222.202423                    
V 15  12143.206878  23518.152154   8729.852752       .056807                    
P 16 -26479.390790  -1057.964204   3380.506321   -100.257538                    
V 16  -3904.605854  -2688.927924 -31459.005529      -.035062                    
P 17  14896.363431  20517.144678  -8164.614812    167.036978                    
V 17   1808.158553  10588.250565  29309.281881       .016097                    
P 18  -8145.730590 -15866.370599  20076.267537     87.689476                    
V 18  24800.379328   1888.598875  11341.567154       .022952                    
P 19 -10798.316119  12728.199015  20607.441758    -58.565914                    
V 19  -9896.179905 -24291.989650  10143.924587      -.030394                    
P 20 -10933.070367  13963.357008 -19886.934015     52.057023                    
V 20 -24933.058798  -2987.595901  11737.762588      -.003916                    
P 21  -1922.976901 -19685.905849  17783.529316    -81.836823                    
V 21  15043.655561 -16521.654717 -17629.818239      -.026847                    
P 22 -19670.599390 -12293.667632  13197.380604    165.067279                    
V 22  16726.071098   -712.959692  24489.299902      -.008002                    
P 23  -2418.099255  21177.510409 -15644.468857    358.014434                    
V 23  -9928.787811 -17431.550834 -22409.593009      -.017034                    
P 24 -19382.433170   3945.985731  17700.655375    313.829267                    
V 24  12465.376621 -18755.129495  18155.962167       .032145                    
P 25    788.535323 -15219.559730 -21775.335788    -34.319573                    
V 25  27508.107937   2227.671934   -575.171348      -.090177                    
P 26  14316.697098  -2371.040111  21710.202813   -100.454516                    
V 26  10042.821692  27020.729030  -3175.170153      -.065940                    
P 27  17685.763359 -18536.779110   7272.851938    180.729413                    
V 27  -2697.471849   8207.455525  30498.711398       .033901                    
P 28  17281.678014  13279.475418  15858.421918     -6.853342                    
V 28 -19146.024700  -1158.705077  22245.538673       .012870                    
P 29  -4321.036255 -24963.060477  -7962.396888    142.778524                    
V 29   6312.081585   8442.992482 -29534.451300       .027308                    
P 30  -1150.543786 -15533.273765 -21924.569949    270.368675                    
V 30  26854.252835   1282.980731  -2323.241177       .033137                    
P 31 -15540.098101  -2871.380363 -21174.166223    -16.334184                    
V 31  15544.153239 -22424.303074  -8117.782185       .028703                    
P 32 -17634.251186   9009.499418 -17191.755397    -64.050995                    
V 32 -21873.198967  -6167.688515  19188.180309      -.088633                    
EOF
